ISS (ZARYA)             
1 25544U 98067A   26014.88606923  .00006740  00000+0  12902-3 0  9998
2 25544  51.6333 338.3791 0007761  18.9639 341.1637 15.49293899547992
CSS (TIANHE)            
1 48274U 21035A   26014.81534949  .00011697  00000+0  14132-3 0  9999
2 48274  41.4652 175.6947 0011406 285.7845  74.1736 15.60511354269195
ISS (NAUKA)             
1 49044U 21066A   26014.88606923  .00006740  00000+0  12902-3 0  9994
2 49044  51.6333 338.3791 0007761  18.9639 341.1637 15.49293899230442
FREGAT DEB              
1 49271U 11037PF  26014.27123044  .00031158  00000+0  62052-1 0  9994
2 49271  51.6098 103.1664 0891274 295.6133  55.5260 12.35731849205952
CSS (WENTIAN)           
1 53239U 22085A   26014.81534950  .00011697  00000+0  14132-3 0  9994
2 53239  41.4652 175.6948 0011406 285.7845  74.1736 15.60511354173849
CSS (MENGTIAN)          
1 54216U 22143A   26014.81534950  .00011697  00000+0  14132-3 0  9995
2 54216  41.4652 175.6948 0011406 285.7845  74.1736 15.60511354158646
SHENZHOU-20 (SZ-20)     
1 63632U 25082A   26014.81534950  .00011697  00000+0  14132-3 0  9992
2 63632  41.4652 175.6948 0011406 285.7845  74.1736 15.60511354255309
PROGRESS-MS 31          
1 64751U 25146A   26014.88606923  .00006740  00000+0  12902-3 0  9999
2 64751  51.6333 338.3791 0007761  18.9639 341.1637 15.49293899  6759
TIANZHOU-9              
1 64786U 25149A   26014.81534950  .00011697  00000+0  14132-3 0  9997
2 64786  41.4652 175.6948 0011406 285.7845  74.1736 15.60511354255300
CREW DRAGON 11          
1 65077U 25166A   26014.88606923  .00006740  00000+0  12902-3 0  9993
2 65077  51.6333 338.3791 0007761  18.9639 341.1637 15.49293899  2140
DRAGON CRS-33           
1 65304U 25186A   26014.88606923  .00006740  00000+0  12902-3 0  9998
2 65304  51.6333 338.3791 0007761  18.9639 341.1637 15.49293899   118
PROGRESS-MS 32          
1 65586U 25204A   26014.88606923  .00006740  00000+0  12902-3 0  9991
2 65586  51.6333 338.3791 0007761  18.9639 341.1637 15.49293899   277
